NOAA 15                 
1 25338U 98030A   23172.57625724  .00000272  00000+0  13141-3 0  9997
2 25338  98.6048 201.5580 0009272 304.7362  55.2945 14.26337693305635
NOAA 18                 
1 28654U 05018A   23172.52749018  .00000240  00000+0  15239-3 0  9998
2 28654  98.9095 246.8968 0014296  12.4506 347.7017 14.12956188932097
NOAA 19                 
1 33591U 09005A   23172.57248770  .00000236  00000+0  15164-3 0  9990
2 33591  99.0989 218.5696 0013113 227.4619 132.5446 14.12773529740304
METOP-B                 
1 38771U 12049A   23172.61354580  .00000161  00000+0  93366-4 0  9997
2 38771  98.6780 231.9144 0001301  82.5949  37.9655 14.21501011558180
SARAL                   
1 39086U 13009A   23172.57048172  .00000136  00000+0  66596-4 0  9993
2 39086  98.5476 357.7959 0000702 274.6910  85.4194 14.32225380539312
METOP-C                 
1 43689U 18087A   23172.48594250  .00000165  00000+0  95411-4 0  9991
2 43689  98.6826 231.9278 0003711  64.6563 295.4999 14.21492284239733
ANGELS                  
1 44876U 19092D   23172.48638825  .00004929  00000+0  22241-3 0  9996
2 44876  97.4776 357.1348 0012084 145.3921 214.8103 15.21403501194276
GAZELLE                 
1 54023U 22127A   23172.52855240  .00000155  00000+0  60330-4 0  9990
2 54023  98.3228 170.3331 0012235 240.3306 119.6666 14.41850840 37007
EOS-6 (OCEANSAT-3)      
1 54361U 22158A   23172.50592862  .00000433  00000+0  13102-3 0  9998
2 54361  98.3531 269.4231 0001490 101.5127 258.6233 14.46994787 29962
